STARLINK-2022           
1 47643U 21012Z   24082.87405569 -.00006090  00000+0 -39007-3 0  9998
2 47643  53.0565  29.5266 0001118  93.8059 266.3057 15.06418788171708
